start=new Date('2021-10-20T00:00:00.000Z').valueOf();
sats=[{"OBJECT_ID":"2020-012C","COUNTRY_CODE":"US","OBJECT_TYPE":"PAYLOAD","EPOCH":"2021-10-19T19:05:48.342624","REF_FRAME":"TEME","MEAN_MOTION_DDOT":"0.0000000000000","MEAN_ANOMALY":"245.3526","ARG_OF_PERICENTER":"114.7612","DECAY_DATE":null,"TLE_LINE2":"2 45180  53.0547  37.8193 0001433 114.7612 245.3526 15.05588446 93395","ELEMENT_SET_NO":"999","BSTAR":"0.00008777300000","ECCENTRICITY":"0.00014330","PERIAPSIS":"548.709","CENTER_NAME":"EARTH","REV_AT_EPOCH":"9339","EPHEMERIS_TYPE":"0","LAUNCH_DATE":"2020-02-17","GP_ID":"187628170","NORAD_CAT_ID":"45180","TLE_LINE1":"1 45180U 20012C   21292.79569841  .00001000  00000-0  87773-4 0  9995","INCLINATION":"53.0547","FILE":"3172644","MEAN_MOTION":"15.05588446","TIME_SYSTEM":"UTC","OBJECT_NAME":"STARLINK-1192","PERIOD":"95.644","SEMIMAJOR_AXIS":"6927.837","RCS_SIZE":"LARGE","MEAN_MOTION_DOT":"0.00001000","RA_OF_ASC_NODE":"37.8193","CLASSIFICATION_TYPE":"U","SITE":"AFETR","MEAN_ELEMENT_THEORY":"SGP4","APOAPSIS":"550.695"},{"OBJECT_NAME":"STARLINK-1200","TIME_SYSTEM":"UTC","SEMIMAJOR_AXIS":"6925.373","MEAN_MOTION_DOT":"0.00000878","RCS_SIZE":"LARGE","PERIOD":"95.593","MEAN_ELEMENT_THEORY":"SGP4","RA_OF_ASC_NODE":"37.8193","CLASSIFICATION_TYPE":"U","SITE":"AFETR","APOAPSIS":"548.017","EPHEMERIS_TYPE":"0","LAUNCH_DATE":"2020-02-17","NORAD_CAT_ID":"45181","GP_ID":"187629421","TLE_LINE1":"1 45181U 20012D   21292.79019959  .00000878  00000-0  77809-4 0  9997","INCLINATION":"53.0554","FILE":"3172644","MEAN_MOTION":"15.06392034","ARG_OF_PERICENTER":"99.6258","ELEMENT_SET_NO":"999","BSTAR":"0.00007780900000","ECCENTRICITY":"0.00011250","DECAY_DATE":null,"TLE_LINE2":"2 45181  53.0554  37.8193 0001125  99.6258 260.4858 15.06392034 93392","PERIAPSIS":"546.459","REV_AT_EPOCH":"9339","CENTER_NAME":"EARTH","COUNTRY_CODE":"US","OBJECT_ID":"2020-012D","EPOCH":"2021-10-19T18:57:53.244576","OBJECT_TYPE":"PAYLOAD","REF_FRAME":"TEME","MEAN_MOTION_DDOT":"0.0000000000000","MEAN_ANOMALY":"260.4858"},{"TLE_LINE2":"2 45182  53.0565  18.6360 0001154 102.3172 257.7946 15.06413222 93498","DECAY_DATE":null,"BSTAR":"0.00019494000000","ECCENTRICITY":"0.00011540","ELEMENT_SET_NO":"999","ARG_OF_PERICENTER":"102.3172","CENTER_NAME":"EARTH","REV_AT_EPOCH":"9349","PERIAPSIS":"546.374","OBJECT_TYPE":"PAYLOAD","EPOCH":"2021-10-19T14:40:28.348608","OBJECT_ID":"2020-012E","COUNTRY_CODE":"US","MEAN_MOTION_DDOT":"0.0000000000000","MEAN_ANOMALY":"257.7946","REF_FRAME":"TEME","PERIOD":"95.591","MEAN_MOTION_DOT":"0.00002624","RCS_SIZE":"LARGE","SEMIMAJOR_AXIS":"6925.308","TIME_SYSTEM":"UTC","OBJECT_NAME":"STARLINK-1201","APOAPSIS":"547.972","SITE":"AFETR","CLASSIFICATION_TYPE":"U","RA_OF_ASC_NODE":"18.6360","MEAN_ELEMENT_THEORY":"SGP4","NORAD_CAT_ID":"45182","GP_ID":"187629666","LAUNCH_DATE":"2020-02-17","EPHEMERIS_TYPE":"0","FILE":"3172644","MEAN_MOTION":"15.06413222","INCLINATION":"53.0565","TLE_LINE1":"1 45182U 20012E   21292.61143922  .00002624  00000-0  19494-3 0  9993"},{"OBJECT_NAME":"STARLINK-1202","TIME_SYSTEM":"UTC","SEMIMAJOR_AXIS":"6925.311","RCS_SIZE":"LARGE","MEAN_MOTION_DOT":"0.00003534","PERIOD":"95.591","MEAN_ELEMENT_THEORY":"SGP4","RA_OF_ASC_NODE":"38.5523","CLASSIFICATION_TYPE":"U","SITE":"AFETR","APOAPSIS":"548.132","EPHEMERIS_TYPE":"0","LAUNCH_DATE":"2020-02-17","GP_ID":"187627920","NORAD_CAT_ID":"45183","TLE_LINE1":"1 45183U 20012F   21292.62803476  .00003534  00000-0  25596-3 0  9993","INCLINATION":"53.0554","FILE":"3172644","MEAN_MOTION":"15.06412312","ARG_OF_PERICENTER":"95.3110","ELEMENT_SET_NO":"999","BSTAR":"0.00025596000000","ECCENTRICITY":"0.00013810","DECAY_DATE":null,"TLE_LINE2":"2 45183  53.0554  38.5523 0001381  95.3110 264.8037 15.06412312 93370","PERIAPSIS":"546.219","REV_AT_EPOCH":"9337","CENTER_NAME":"EARTH","COUNTRY_CODE":"US","OBJECT_ID":"2020-012F","EPOCH":"2021-10-19T15:04:22.203264","OBJECT_TYPE":"PAYLOAD","REF_FRAME":"TEME","MEAN_ANOMALY":"264.8037","MEAN_MOTION_DDOT":"0.0000000000000"},{"NORAD_CAT_ID":"45184","GP_ID":"187628670","EPHEMERIS_TYPE":"0","LAUNCH_DATE":"2020-02-17","INCLINATION":"53.0552","FILE":"3172644","MEAN_MOTION":"15.06404159","TLE_LINE1":"1 45184U 20012G   21292.55245257 -.00001705  00000-0 -95591-4 0  9996","SEMIMAJOR_AXIS":"6925.336","MEAN_MOTION_DOT":"-0.00001705","RCS_SIZE":"LARGE","PERIOD":"95.592","OBJECT_NAME":"STARLINK-1205","TIME_SYSTEM":"UTC","APOAPSIS":"547.933","MEAN_ELEMENT_THEORY":"SGP4","CLASSIFICATION_TYPE":"U","RA_OF_ASC_NODE":"18.8919","SITE":"AFETR","EPOCH":"2021-10-19T13:15:31.902048","OBJECT_TYPE":"PAYLOAD","COUNTRY_CODE":"US","OBJECT_ID":"2020-012G","MEAN_ANOMALY":"262.8679","MEAN_MOTION_DDOT":"0.0000000000000","REF_FRAME":"TEME","ELEMENT_SET_NO":"999","BSTAR":"-0.00009559100000","ECCENTRICITY":"0.00010570","DECAY_DATE":null,"TLE_LINE2":"2 45184  53.0552  18.8919 0001057  97.2430 262.8679 15.06404159 92677","ARG_OF_PERICENTER":"97.2430","REV_AT_EPOCH":"9267","CENTER_NAME":"EARTH","PERIAPSIS":"546.469"},{"ARG_OF_PERICENTER":"106.1344","DECAY_DATE":null,"TLE_LINE2":"2 45185  53.0558  38.5859 0001404 106.1344 253.9799 15.06396396 93315","ELEMENT_SET_NO":"999","BSTAR":"0.00005518300000","ECCENTRICITY":"0.00014040","PERIAPSIS":"546.252","CENTER_NAME":"EARTH","REV_AT_EPOCH":"9331","OBJECT_ID":"2020-012H","COUNTRY_CODE":"US","OBJECT_TYPE":"PAYLOAD","EPOCH":"2021-10-19T14:53:43.510272","REF_FRAME":"TEME","MEAN_ANOMALY":"253.9799","MEAN_MOTION_DDOT":"0.0000000000000","TIME_SYSTEM":"UTC","OBJECT_NAME":"STARLINK-1216","PERIOD":"95.592","SEMIMAJOR_AXIS":"6925.360","RCS_SIZE":"LARGE","MEAN_MOTION_DOT":"0.00000541","RA_OF_ASC_NODE":"38.5859","CLASSIFICATION_TYPE":"U","SITE":"AFETR","MEAN_ELEMENT_THEORY":"SGP4","APOAPSIS":"548.197","EPHEMERIS_TYPE":"0","LAUNCH_DATE":"2020-02-17","NORAD_CAT_ID":"45185","GP_ID":"187628922","TLE_LINE1":"1 45185U 20012H   21292.62064248  .00000541  00000-0  55183-4 0  9992","INCLINATION":"53.0558","FILE":"3172644","MEAN_MOTION":"15.06396396"},{"EPOCH":"2021-10-19T15:14:58.864128","OBJECT_TYPE":"PAYLOAD","COUNTRY_CODE":"US","OBJECT_ID":"2020-012J","MEAN_MOTION_DDOT":"0.0000000000000","MEAN_ANOMALY":"260.4192","REF_FRAME":"TEME","BSTAR":"0.00028198000000","ECCENTRICITY":"0.00012190","ELEMENT_SET_NO":"999","TLE_LINE2":"2 45186  53.0554  38.5196 0001219  99.6935 260.4192 15.06413250 93311","DECAY_DATE":null,"ARG_OF_PERICENTER":"99.6935","REV_AT_EPOCH":"9331","CENTER_NAME":"EARTH","PERIAPSIS":"546.329","GP_ID":"187629167","NORAD_CAT_ID":"45186","LAUNCH_DATE":"2020-02-17","EPHEMERIS_TYPE":"0","MEAN_MOTION":"15.06413250","FILE":"3172644","INCLINATION":"53.0554","TLE_LINE1":"1 45186U 20012J   21292.63540352  .00003923  00000-0  28198-3 0  9991","MEAN_MOTION_DOT":"0.00003923","RCS_SIZE":"LARGE","SEMIMAJOR_AXIS":"6925.308","PERIOD":"95.591","OBJECT_NAME":"STARLINK-1224","TIME_SYSTEM":"UTC","APOAPSIS":"548.017","MEAN_ELEMENT_THEORY":"SGP4","SITE":"AFETR","RA_OF_ASC_NODE":"38.5196","CLASSIFICATION_TYPE":"U"},{"MEAN_ANOMALY":"265.2723","MEAN_MOTION_DDOT":"0.0000000000000","REF_FRAME":"TEME","EPOCH":"2021-10-19T15:20:17.172096","OBJECT_TYPE":"PAYLOAD","COUNTRY_CODE":"US","OBJECT_ID":"2020-012K","REV_AT_EPOCH":"9336","CENTER_NAME":"EARTH","PERIAPSIS":"546.350","ELEMENT_SET_NO":"999","BSTAR":"0.00019975000000","ECCENTRICITY":"0.00012430","DECAY_DATE":null,"TLE_LINE2":"2 45187  53.0551  38.5053 0001243  94.8408 265.2723 15.06400945 93365","ARG_OF_PERICENTER":"94.8408","INCLINATION":"53.0551","FILE":"3172644","MEAN_MOTION":"15.06400945","TLE_LINE1":"1 45187U 20012K   21292.63908764  .00002695  00000-0  19975-3 0  9995","GP_ID":"187628420","NORAD_CAT_ID":"45187","EPHEMERIS_TYPE":"0","LAUNCH_DATE":"2020-02-17","APOAPSIS":"548.071","MEAN_ELEMENT_THEORY":"SGP4","CLASSIFICATION_TYPE":"U","RA_OF_ASC_NODE":"38.5053","SITE":"AFETR","SEMIMAJOR_AXIS":"6925.346","RCS_SIZE":"LARGE","MEAN_MOTION_DOT":"0.00002695","PERIOD":"95.592","OBJECT_NAME":"STARLINK-1225","TIME_SYSTEM":"UTC"},{"PERIAPSIS":"546.544","CENTER_NAME":"EARTH","REV_AT_EPOCH":"9292","ARG_OF_PERICENTER":"80.4994","DECAY_DATE":null,"TLE_LINE2":"2 45188  53.0561 358.9749 0000909  80.4994 279.6097 15.06413167 92921","ELEMENT_SET_NO":"999","BSTAR":"0.00017946000000","ECCENTRICITY":"0.00009090","REF_FRAME":"TEME","MEAN_ANOMALY":"279.6097","MEAN_MOTION_DDOT":"0.0000000000000","OBJECT_ID":"2020-012L","COUNTRY_CODE":"US","OBJECT_TYPE":"PAYLOAD","EPOCH":"2021-10-19T12:51:39.209472","CLASSIFICATION_TYPE":"U","RA_OF_ASC_NODE":"358.9749","SITE":"AFETR","MEAN_ELEMENT_THEORY":"SGP4","APOAPSIS":"547.803","TIME_SYSTEM":"UTC","OBJECT_NAME":"STARLINK-1228","PERIOD":"95.591","SEMIMAJOR_AXIS":"6925.308","RCS_SIZE":"LARGE","MEAN_MOTION_DOT":"0.00002394","TLE_LINE1":"1 45188U 20012L   21292.53587048  .00002394  00000-0  17946-3 0  9995","INCLINATION":"53.0561","FILE":"3171695","MEAN_MOTION":"15.06413167","EPHEMERIS_TYPE":"0","LAUNCH_DATE":"2020-02-17","NORAD_CAT_ID":"45188","GP_ID":"187587388"},{"EPOCH":"2021-10-19T18:36:39.712896","OBJECT_TYPE":"PAYLOAD","COUNTRY_CODE":"US","OBJECT_ID":"2020-012M","MEAN_ANOMALY":"270.0439","MEAN_MOTION_DDOT":"0.0000000000000","REF_FRAME":"TEME","ELEMENT_SET_NO":"999","BSTAR":"-0.00005308100000","ECCENTRICITY":"0.00013400","DECAY_DATE":null,"TLE_LINE2":"2 45189  53.0562  37.8928 0001340  90.0703 270.0439 15.06394404 90611","ARG_OF_PERICENTER":"90.0703","REV_AT_EPOCH":"9061","CENTER_NAME":"EARTH","PERIAPSIS":"546.303","NORAD_CAT_ID":"45189","GP_ID":"187629422","EPHEMERIS_TYPE":"0","LAUNCH_DATE":"2020-02-17","INCLINATION":"53.0562","FILE":"3172644","MEAN_MOTION":"15.06394404","TLE_LINE1":"1 45189U 20012M   21292.77545964 -.00001072  00000-0 -53081-4 0  9998","SEMIMAJOR_AXIS":"6925.366","RCS_SIZE":"LARGE","MEAN_MOTION_DOT":"-0.00001072","PERIOD":"95.592","OBJECT_NAME":"STARLINK-1230","TIME_SYSTEM":"UTC","APOAPSIS":"548.159","MEAN_ELEMENT_THEORY":"SGP4","CLASSIFICATION_TYPE":"U","RA_OF_ASC_NODE":"37.8928","SITE":"AFETR"}];
